IRIDIUM 39              
1 25042U 97069D   25114.89262957  .00001462  00000+0  37827-3 0  9997
2 25042  86.3929 233.9628 0019819 122.0298 238.2835 14.49141136441247
IRIDIUM 38              
1 25043U 97069E   25114.80058106  .00001010  00000+0  32747-3 0  9993
2 25043  86.3935 255.6102 0000215  97.8474 262.2749 14.38060219438289
IRIDIUM 42              
1 25077U 97077A   25114.46261914  .00000841  00000+0  28118-3 0  9992
2 25077  86.3927 261.8602 0001449  83.9399 276.1963 14.36298464433485
IRIDIUM 44              
1 25078U 97077B   25114.77048036  .00000913  00000+0  28288-3 0  9993
2 25078  86.3957 243.7856 0002325 144.0095 216.1261 14.40189743436016
IRIDIUM 45              
1 25104U 97082A   25114.38238525  .00021225  00000+0  79995-3 0  9990
2 25104  86.3567  73.9731 0122281 171.3053 189.0351 15.20113408443862
IRIDIUM 24              
1 25105U 97082B   25114.95088507  .00001075  00000+0  32171-3 0  9993
2 25105  86.3860 102.8860 0009141 250.6490 109.3722 14.42034607435548
IRIDIUM 51              
1 25262U 98018A   25114.86973654  .00058699  00000+0  14441-2 0  9996
2 25262  86.3820  82.1511 0098764  94.6712 266.5828 15.35402200438832
IRIDIUM 57              
1 25273U 98019B   25114.72125894  .00000577  00000+0  19252-3 0  9997
2 25273  86.4001 167.6544 0002203  93.3984 266.7465 14.35852585417112
